{
    "links": {
        "self": "http://www.neowsapp.com/rest/v1/neo/3892690?api_key=iIulBulltgU6a56xZRHN4H3l9WmuAYTsLGpBGhQ2"
    },
    "id": "3892690",
    "neo_reference_id": "3892690",
    "name": "(2019 VF3)",
    "designation": "2019 VF3",
    "nasa_jpl_url": "http://ssd.jpl.nasa.gov/sbdb.cgi?sstr=3892690",
    "absolute_magnitude_h": 25.8,
    "estimated_diameter": {
        "kilometers": {
            "estimated_diameter_min": 0.0183888672,
            "estimated_diameter_max": 0.0411187571
        },
        "meters": {
            "estimated_diameter_min": 18.388867207,
            "estimated_diameter_max": 41.1187571041
        },
        "miles": {
            "estimated_diameter_min": 0.0114263088,
            "estimated_diameter_max": 0.0255500032
        },
        "feet": {
            "estimated_diameter_min": 60.3309310875,
            "estimated_diameter_max": 134.9040630575
        }
    },
    "is_potentially_hazardous_asteroid": false,
    "close_approach_data": [
        {
            "close_approach_date": "2019-11-01",
            "close_approach_date_full": "2019-Nov-01 20:59",
            "epoch_date_close_approach": 1572641940000,
            "relative_velocity": {
                "kilometers_per_second": "16.0223578906",
                "kilometers_per_hour": "57680.4884061064",
                "miles_per_hour": "35840.4123654498"
            },
            "miss_distance": {
                "astronomical": "0.0224806567",
                "lunar": "8.7449754563",
                "kilometers": "3363058.358521229",
                "miles": "2089707.5629578002"
            },
            "orbiting_body": "Earth"
        }
    ],
    "orbital_data": {
        "orbit_id": "2",
        "orbit_determination_date": "2019-11-07 08:15:04",
        "first_observation_date": "2019-11-04",
        "last_observation_date": "2019-11-06",
        "data_arc_in_days": 2,
        "observations_used": 22,
        "orbit_uncertainty": "8",
        "minimum_orbit_intersection": ".0188828",
        "jupiter_tisserand_invariant": "3.481",
        "epoch_osculation": "2458792.5",
        "eccentricity": ".5639092394709101",
        "semi_major_axis": "2.085931373063928",
        "inclination": "19.38778477017053",
        "ascending_node_longitude": "39.9847101255985",
        "orbital_period": "1100.394601250649",
        "perihelion_distance": ".9096553988909371",
        "perihelion_argument": "314.9039146036907",
        "aphelion_distance": "3.262207347236918",
        "perihelion_time": "2458756.751289688444",
        "mean_anomaly": "11.69538245419719",
        "mean_motion": ".3271553673480798",
        "equinox": "J2000",
        "orbit_class": {
            "orbit_class_type": "APO",
            "orbit_class_description": "Near-Earth asteroid orbits which cross the Earth’s orbit similar to that of 1862 Apollo",
            "orbit_class_range": "a (semi-major axis) > 1.0 AU; q (perihelion) < 1.017 AU"
        }
    },
    "is_sentry_object": false
}